STARLINK-34230
1 64137U 25111Q   26092.83335647  .00318253  00000+0  47489-2 0  9994
2 64137  42.9920 289.9945 0020382 280.4623 249.3730 15.52978932  5896
